{
    "links": {
        "self": "http://www.neowsapp.com/rest/v1/neo/3836312?api_key=iIulBulltgU6a56xZRHN4H3l9WmuAYTsLGpBGhQ2"
    },
    "id": "3836312",
    "neo_reference_id": "3836312",
    "name": "(2018 WY1)",
    "designation": "2018 WY1",
    "nasa_jpl_url": "http://ssd.jpl.nasa.gov/sbdb.cgi?sstr=3836312",
    "absolute_magnitude_h": 28.3,
    "estimated_diameter": {
        "kilometers": {
            "estimated_diameter_min": 0.0058150704,
            "estimated_diameter_max": 0.0130028927
        },
        "meters": {
            "estimated_diameter_min": 5.8150703965,
            "estimated_diameter_max": 13.0028927004
        },
        "miles": {
            "estimated_diameter_min": 0.0036133161,
            "estimated_diameter_max": 0.0080796204
        },
        "feet": {
            "estimated_diameter_min": 19.0783155595,
            "estimated_diameter_max": 42.6604104873
        }
    },
    "is_potentially_hazardous_asteroid": false,
    "close_approach_data": [
        {
            "close_approach_date": "2018-11-26",
            "close_approach_date_full": "2018-Nov-26 12:53",
            "epoch_date_close_approach": 1543236780000,
            "relative_velocity": {
                "kilometers_per_second": "16.3865578116",
                "kilometers_per_hour": "58991.6081218925",
                "miles_per_hour": "36655.0911688504"
            },
            "miss_distance": {
                "astronomical": "0.003713219",
                "lunar": "1.444442191",
                "kilometers": "555489.65324353",
                "miles": "345165.264999514"
            },
            "orbiting_body": "Earth"
        },
        {
            "close_approach_date": "2018-11-26",
            "close_approach_date_full": "2018-Nov-26 17:41",
            "epoch_date_close_approach": 1543254060000,
            "relative_velocity": {
                "kilometers_per_second": "17.0420322139",
                "kilometers_per_hour": "61351.3159700969",
                "miles_per_hour": "38121.3218593083"
            },
            "miss_distance": {
                "astronomical": "0.0041710488",
                "lunar": "1.6225379832",
                "kilometers": "623980.016146056",
                "miles": "387723.2030693328"
            },
            "orbiting_body": "Moon"
        }
    ],
    "orbital_data": {
        "orbit_id": "1",
        "orbit_determination_date": "2018-11-30 04:42:04",
        "first_observation_date": "2018-11-28",
        "last_observation_date": "2018-11-30",
        "data_arc_in_days": 2,
        "observations_used": 18,
        "orbit_uncertainty": "9",
        "minimum_orbit_intersection": ".00370999",
        "jupiter_tisserand_invariant": "3.678",
        "epoch_osculation": "2458451.5",
        "eccentricity": ".61428354488343",
        "semi_major_axis": "1.911745853779329",
        "inclination": ".6218030953048289",
        "ascending_node_longitude": "43.90000422531598",
        "orbital_period": "965.4808459910646",
        "perihelion_distance": ".7373918338035633",
        "perihelion_argument": "309.6506525390766",
        "aphelion_distance": "3.086099873755094",
        "perihelion_time": "2458405.182493395482",
        "mean_anomaly": "17.27046419083574",
        "mean_motion": ".3728711983203152",
        "equinox": "J2000",
        "orbit_class": {
            "orbit_class_type": "APO",
            "orbit_class_description": "Near-Earth asteroid orbits which cross the Earth’s orbit similar to that of 1862 Apollo",
            "orbit_class_range": "a (semi-major axis) > 1.0 AU; q (perihelion) < 1.017 AU"
        }
    },
    "is_sentry_object": false
}